{
  "links" : {
    "next" : "https://api.nasa.gov/neo/rest/v1/feed?start_date=2010-06-09&end_date=2010-06-09&detailed=true&api_key=t0TVs3DtDT2H8Oy2Zy8m2eVrNsAVKAexjcZXUckd",
    "prev" : "https://api.nasa.gov/neo/rest/v1/feed?start_date=2010-06-07&end_date=2010-06-07&detailed=true&api_key=t0TVs3DtDT2H8Oy2Zy8m2eVrNsAVKAexjcZXUckd",
    "self" : "https://api.nasa.gov/neo/rest/v1/feed?start_date=2010-06-08&end_date=2010-06-08&detailed=true&api_key=t0TVs3DtDT2H8Oy2Zy8m2eVrNsAVKAexjcZXUckd"
  },
  "element_count" : 5,
  "near_earth_objects" : {
    "2010-06-08" : [ {
      "links" : {
        "self" : "https://api.nasa.gov/neo/rest/v1/neo/3724245?api_key=t0TVs3DtDT2H8Oy2Zy8m2eVrNsAVKAexjcZXUckd"
      },
      "neo_reference_id" : "3724245",
      "name" : "(2015 OQ21)",
      "nasa_jpl_url" : "http://ssd.jpl.nasa.gov/sbdb.cgi?sstr=3724245",
      "absolute_magnitude_h" : 27.9,
      "estimated_diameter" : {
        "kilometers" : {
          "estimated_diameter_min" : 0.0069912523,
          "estimated_diameter_max" : 0.0156329154
        },
        "meters" : {
          "estimated_diameter_min" : 6.9912523225,
          "estimated_diameter_max" : 15.6329154409
        },
        "miles" : {
          "estimated_diameter_min" : 0.0043441614,
          "estimated_diameter_max" : 0.0097138403
        },
        "feet" : {
          "estimated_diameter_min" : 22.9371802696,
          "estimated_diameter_max" : 51.289094295
        }
      },
      "is_potentially_hazardous_asteroid" : false,
      "close_approach_data" : [ {
        "close_approach_date" : "2010-06-08",
        "epoch_date_close_approach" : 1275980400000,
        "relative_velocity" : {
          "kilometers_per_second" : "23.1735202353",
          "kilometers_per_hour" : "83424.6728469835",
          "miles_per_hour" : "51836.8474142826"
        },
        "miss_distance" : {
          "astronomical" : "0.4786985714",
          "lunar" : "186.2137451172",
          "kilometers" : "71612288",
          "miles" : "44497812"
        },
        "orbiting_body" : "Earth"
      } ],
      "orbital_data" : {
        "orbit_id" : "9",
        "orbit_determination_date" : "2017-04-06 08:32:44",
        "orbit_uncertainty" : "3",
        "minimum_orbit_intersection" : ".00229886",
        "jupiter_tisserand_invariant" : "7.319",
        "epoch_osculation" : "2458000.5",
        "eccentricity" : ".3642295987331517",
        "semi_major_axis" : ".7891752091462928",
        "inclination" : "1.598096348955278",
        "ascending_node_longitude" : "125.4813532238678",
        "orbital_period" : "256.0699271458094",
        "perihelion_distance" : ".5017342393887876",
        "perihelion_argument" : "328.8557370843354",
        "aphelion_distance" : "1.076616178903798",
        "perihelion_time" : "2458088.190200681836",
        "mean_anomaly" : "236.7193297653987",
        "mean_motion" : "1.405865983610842",
        "equinox" : "J2000"
      }
    }, {
      "links" : {
        "self" : "https://api.nasa.gov/neo/rest/v1/neo/3747353?api_key=t0TVs3DtDT2H8Oy2Zy8m2eVrNsAVKAexjcZXUckd"
      },
      "neo_reference_id" : "3747353",
      "name" : "(2016 EE158)",
      "nasa_jpl_url" : "http://ssd.jpl.nasa.gov/sbdb.cgi?sstr=3747353",
      "absolute_magnitude_h" : 24.0,
      "estimated_diameter" : {
        "kilometers" : {
          "estimated_diameter_min" : 0.0421264611,
          "estimated_diameter_max" : 0.0941976306
        },
        "meters" : {
          "estimated_diameter_min" : 42.1264610556,
          "estimated_diameter_max" : 94.1976305719
        },
        "miles" : {
          "estimated_diameter_min" : 0.0261761612,
          "estimated_diameter_max" : 0.0585316759
        },
        "feet" : {
          "estimated_diameter_min" : 138.2101784897,
          "estimated_diameter_max" : 309.0473542854
        }
      },
      "is_potentially_hazardous_asteroid" : false,
      "close_approach_data" : [ {
        "close_approach_date" : "2010-06-08",
        "epoch_date_close_approach" : 1275980400000,
        "relative_velocity" : {
          "kilometers_per_second" : "12.3330169918",
          "kilometers_per_hour" : "44398.8611705239",
          "miles_per_hour" : "27587.7257089847"
        },
        "miss_distance" : {
          "astronomical" : "0.4024642599",
          "lunar" : "156.55859375",
          "kilometers" : "60207800",
          "miles" : "37411392"
        },
        "orbiting_body" : "Earth"
      } ],
      "orbital_data" : {
        "orbit_id" : "30",
        "orbit_determination_date" : "2017-04-06 08:27:25",
        "orbit_uncertainty" : "4",
        "minimum_orbit_intersection" : ".10079",
        "jupiter_tisserand_invariant" : "4.347",
        "epoch_osculation" : "2458000.5",
        "eccentricity" : ".3025247352005125",
        "semi_major_axis" : "1.577234643354911",
        "inclination" : "3.254478508574139",
        "ascending_node_longitude" : "183.8961489515237",
        "orbital_period" : "723.5072515238039",
        "perihelion_distance" : "1.100082150524892",
        "perihelion_argument" : "46.33946478757843",
        "aphelion_distance" : "2.054387136184931",
        "perihelion_time" : "2458242.878108110827",
        "mean_anomaly" : "239.3984182796722",
        "mean_motion" : ".4975762153617554",
        "equinox" : "J2000"
      }
    } ]
  }
}